{
  "type": "FeatureCollection",
  "features": [
    {
      "type": "Feature",
      "properties": {
        "norad_id": 40730,
        "name": "GPS BIIF-10 (PRN 08)",
        "group": "gps-ops",
        "lat": 41.203376427623326,
        "lon": 55.94108437274555,
        "alt_km": 20220.246868892737,
        "timestamp": "2025-12-02T10:50:47.532873+00:00",
        "meta_object_name": "GPS BIIF-10 (PRN 08)",
        "meta_object_id": "2015-033A",
        "meta_epoch": "2025-12-01T06:48:01.040832",
        "meta_mean_motion": 2.0056609,
        "meta_eccentricity": 0.0110237,
        "meta_inclination": 54.1408,
        "meta_ra_of_asc_node": 275.2444,
        "meta_arg_of_pericenter": 26.5253,
        "meta_mean_anomaly": 334.0329,
        "meta_ephemeris_type": 0,
        "meta_classification_type": "U",
        "meta_norad_cat_id": 40730,
        "meta_element_set_no": 999,
        "meta_rev_at_epoch": 7602,
        "meta_bstar": 0,
        "meta_mean_motion_dot": -3.9e-07,
        "meta_mean_motion_ddot": 0,
        "tle_line1": "1 40730U 15033A   25335.28334538 -.00000039  00000+0  00000+0 0  9991",
        "tle_line2": "2 40730  54.1408 275.2444 0110237  26.5253 334.0329  2.00566090 76020"
      },
      "geometry": {
        "type": "Point",
        "coordinates": [
          55.94108437274555,
          41.203376427623326
        ]
      }
    },
    {
      "type": "Feature",
      "properties": {
        "norad_id": 41019,
        "name": "GPS BIIF-11 (PRN 10)",
        "group": "gps-ops",
        "lat": 55.35840363259843,
        "lon": 109.44972929697258,
        "alt_km": 20429.93994065775,
        "timestamp": "2025-12-02T10:50:47.532885+00:00",
        "meta_object_name": "GPS BIIF-11 (PRN 10)",
        "meta_object_id": "2015-062A",
        "meta_epoch": "2025-12-01T08:13:28.844544",
        "meta_mean_motion": 2.00567003,
        "meta_eccentricity": 0.01104814,
        "meta_inclination": 56.824,
        "meta_ra_of_asc_node": 38.4433,
        "meta_arg_of_pericenter": 229.6355,
        "meta_mean_anomaly": 129.443,
        "meta_ephemeris_type": 0,
        "meta_classification_type": "U",
        "meta_norad_cat_id": 41019,
        "meta_element_set_no": 999,
        "meta_rev_at_epoch": 7386,
        "meta_bstar": 0,
        "meta_mean_motion_dot": -6.4e-07,
        "meta_mean_motion_ddot": 0,
        "tle_line1": "1 41019U 15062A   25335.34269496 -.00000064  00000+0  00000+0 0  9999",
        "tle_line2": "2 41019  56.8240  38.4433 0110481 229.6355 129.4430  2.00567003 73864"
      },
      "geometry": {
        "type": "Point",
        "coordinates": [
          109.44972929697258,
          55.35840363259843
        ]
      }
    },
    {
      "type": "Feature",
      "properties": {
        "norad_id": 41328,
        "name": "GPS BIIF-12 (PRN 32)",
        "group": "gps-ops",
        "lat": 17.39402949271263,
        "lon": 109.72876564240903,
        "alt_km": 20360.076958495247,
        "timestamp": "2025-12-02T10:50:47.532897+00:00",
        "meta_object_name": "GPS BIIF-12 (PRN 32)",
        "meta_object_id": "2016-007A",
        "meta_epoch": "2025-11-30T22:13:59.162016",
        "meta_mean_motion": 2.00561199,
        "meta_eccentricity": 0.00916,
        "meta_inclination": 55.3993,
        "meta_ra_of_asc_node": 97.326,
        "meta_arg_of_pericenter": 243.286,
        "meta_mean_anomaly": 115.7578,
        "meta_ephemeris_type": 0,
        "meta_classification_type": "U",
        "meta_norad_cat_id": 41328,
        "meta_element_set_no": 999,
        "meta_rev_at_epoch": 7186,
        "meta_bstar": 0,
        "meta_mean_motion_dot": 2.3e-07,
        "meta_mean_motion_ddot": 0,
        "tle_line1": "1 41328U 16007A   25334.92637919  .00000023  00000+0  00000+0 0  9998",
        "tle_line2": "2 41328  55.3993  97.3260 0091600 243.2860 115.7578  2.00561199 71861"
      },
      "geometry": {
        "type": "Point",
        "coordinates": [
          109.72876564240903,
          17.39402949271263
        ]
      }
    },
    {
      "type": "Feature",
      "properties": {
        "norad_id": 43873,
        "name": "GPS BIII-1  (PRN 04)",
        "group": "gps-ops",
        "lat": -55.11356439471332,
        "lon": 20.38557237097137,
        "alt_km": 20174.16565934584,
        "timestamp": "2025-12-02T10:50:47.532908+00:00",
        "meta_object_name": "GPS BIII-1  (PRN 04)",
        "meta_object_id": "2018-109A",
        "meta_epoch": "2025-12-01T14:03:36.800640",
        "meta_mean_motion": 2.00553137,
        "meta_eccentricity": 0.00371823,
        "meta_inclination": 55.5605,
        "meta_ra_of_asc_node": 99.9877,
        "meta_arg_of_pericenter": 194.4831,
        "meta_mean_anomaly": 175.6663,
        "meta_ephemeris_type": 0,
        "meta_classification_type": "U",
        "meta_norad_cat_id": 43873,
        "meta_element_set_no": 999,
        "meta_rev_at_epoch": 5111,
        "meta_bstar": 0,
        "meta_mean_motion_dot": 2.2e-07,
        "meta_mean_motion_ddot": 0,
        "tle_line1": "1 43873U 18109A   25335.58584260  .00000022  00000+0  00000+0 0  9992",
        "tle_line2": "2 43873  55.5605  99.9877 0037182 194.4831 175.6663  2.00553137 51111"
      },
      "geometry": {
        "type": "Point",
        "coordinates": [
          20.38557237097137,
          -55.11356439471332
        ]
      }
    },
    {
      "type": "Feature",
      "properties": {
        "norad_id": 44506,
        "name": "GPS BIII-2  (PRN 18)",
        "group": "gps-ops",
        "lat": 6.8102564471192215,
        "lon": 154.2917094933737,
        "alt_km": 20044.37945582476,
        "timestamp": "2025-12-02T10:50:47.532920+00:00",
        "meta_object_name": "GPS BIII-2  (PRN 18)",
        "meta_object_id": "2019-056A",
        "meta_epoch": "2025-12-01T10:53:28.832352",
        "meta_mean_motion": 2.00565577,
        "meta_eccentricity": 0.00578098,
        "meta_inclination": 55.7254,
        "meta_ra_of_asc_node": 339.0016,
        "meta_arg_of_pericenter": 198.3769,
        "meta_mean_anomaly": 332.9368,
        "meta_ephemeris_type": 0,
        "meta_classification_type": "U",
        "meta_norad_cat_id": 44506,
        "meta_element_set_no": 999,
        "meta_rev_at_epoch": 4610,
        "meta_bstar": 0,
        "meta_mean_motion_dot": -5.6e-07,
        "meta_mean_motion_ddot": 0,
        "tle_line1": "1 44506U 19056A   25335.45380593 -.00000056  00000+0  00000+0 0  9995",
        "tle_line2": "2 44506  55.7254 339.0016 0057809 198.3769 332.9368  2.00565577 46105"
      },
      "geometry": {
        "type": "Point",
        "coordinates": [
          154.2917094933737,
          6.8102564471192215
        ]
      }
    },
    {
      "type": "Feature",
      "properties": {
        "norad_id": 45854,
        "name": "GPS BIII-3  (PRN 23)",
        "group": "gps-ops",
        "lat": 48.82773805456131,
        "lon": 167.55133249871687,
        "alt_km": 20168.50008226564,
        "timestamp": "2025-12-02T10:50:47.532932+00:00",
        "meta_object_name": "GPS BIII-3  (PRN 23)",
        "meta_object_id": "2020-041A",
        "meta_epoch": "2025-12-01T12:48:33.414048",
        "meta_mean_motion": 2.00561786,
        "meta_eccentricity": 0.00602336,
        "meta_inclination": 56.5391,
        "meta_ra_of_asc_node": 36.623,
        "meta_arg_of_pericenter": 202.9184,
        "meta_mean_anomaly": 330.3559,
        "meta_ephemeris_type": 0,
        "meta_classification_type": "U",
        "meta_norad_cat_id": 45854,
        "meta_element_set_no": 999,
        "meta_rev_at_epoch": 4007,
        "meta_bstar": 0,
        "meta_mean_motion_dot": -6.5e-07,
        "meta_mean_motion_ddot": 0,
        "tle_line1": "1 45854U 20041A   25335.53372007 -.00000065  00000+0  00000+0 0  9998",
        "tle_line2": "2 45854  56.5391  36.6230 0060233 202.9184 330.3559  2.00561786 40071"
      },
      "geometry": {
        "type": "Point",
        "coordinates": [
          167.55133249871687,
          48.82773805456131
        ]
      }
    },
    {
      "type": "Feature",
      "properties": {
        "norad_id": 46826,
        "name": "GPS BIII-4  (PRN 14)",
        "group": "gps-ops",
        "lat": 53.86237384775576,
        "lon": -57.60774411491536,
        "alt_km": 20254.18412309754,
        "timestamp": "2025-12-02T10:50:47.532943+00:00",
        "meta_object_name": "GPS BIII-4  (PRN 14)",
        "meta_object_id": "2020-078A",
        "meta_epoch": "2025-11-12T03:01:29.190720",
        "meta_mean_motion": 2.00567032,
        "meta_eccentricity": 0.0063911,
        "meta_inclination": 54.0223,
        "meta_ra_of_asc_node": 219.5836,
        "meta_arg_of_pericenter": 203.4985,
        "meta_mean_anomaly": 326.7754,
        "meta_ephemeris_type": 0,
        "meta_classification_type": "U",
        "meta_norad_cat_id": 46826,
        "meta_element_set_no": 999,
        "meta_rev_at_epoch": 3715,
        "meta_bstar": 0,
        "meta_mean_motion_dot": -3.4e-07,
        "meta_mean_motion_ddot": 0,
        "tle_line1": "1 46826U 20078A   25316.12603230 -.00000034  00000+0  00000+0 0  9993",
        "tle_line2": "2 46826  54.0223 219.5836 0063911 203.4985 326.7754  2.00567032 37154"
      },
      "geometry": {
        "type": "Point",
        "coordinates": [
          -57.60774411491536,
          53.86237384775576
        ]
      }
    }
  ]
}